STARLINK-34006          
1 63869U 25094F   26195.65750527  .00000967  00000+0  88830-4 0  9994
2 63869  70.0014 274.2507 0003582 268.2027  91.8722 14.98332764 66220
STARLINK-33986          
1 63870U 25094G   26195.59909356  .00000770  00000+0  72343-4 0  9999
2 63870  70.0010 274.4443 0003857 266.9959  93.0759 14.98331070 66215
STARLINK-34013          
1 63871U 25094H   26195.65316594  .00001271  00000+0  11425-3 0  9993
2 63871  70.0005 274.2391 0003725 270.0642  90.0090 14.98334545 66225
STARLINK-34059          
1 63872U 25094J   26195.62816221  .00002903  00000+0  25109-3 0  9990
2 63872  70.0009 274.5533 0003211 268.7196  91.3595 14.98317652 66212
STARLINK-33987          
1 63873U 25094K   26195.66150764 -.00001759  00000+0 -13963-3 0  9993
2 63873  70.0012 274.2653 0003523 270.4982  89.5773 14.98331444 66229
STARLINK-34052          
1 63874U 25094L   26195.62397640  .00001494  00000+0  13296-3 0  9999
2 63874  70.0009 274.5359 0003550 268.6484  91.4269 14.98332186 66213
STARLINK-34023          
1 63875U 25094M   26195.65733986  .00001162  00000+0  10512-3 0  9990
2 63875  70.0007 274.2497 0003713 268.0572  92.0162 14.98334028 66211
STARLINK-33778          
1 63877U 25094P   26195.61161709  .00000605  00000+0  58488-4 0  9992
2 63877  70.0012 274.4888 0003832 269.9024  90.1696 14.98331575 66214
STARLINK-33901          
1 63878U 25094Q   26195.62832895  .00002911  00000+0  25159-3 0  9995
2 63878  70.0012 274.5446 0003835 268.7204  91.3516 14.98338311 66215
STARLINK-33812          
1 63879U 25094R   26195.60310289  .00000975  00000+0  89505-4 0  9996
2 63879  70.0012 274.4563 0003542 266.9154  93.1600 14.98330958 66217
STARLINK-33779          
1 63880U 25094S   26195.61980500  .00002871  00000+0  24831-3 0  9995
2 63880  70.0014 274.5234 0003604 269.2048  90.8698 14.98327552 66211
STARLINK-33905          
1 63881U 25094T   26195.64481894  .00001324  00000+0  11871-3 0  9993
2 63881  70.0011 274.2075 0003479 269.4976  90.5785 14.98333529 66227
STARLINK-34003          
1 63882U 25094U   26195.49680174  .00021364  00000+0  45719-3 0  9993
2 63882  69.9989 222.7693 0003655 271.5279  88.5485 15.44764953 67494
STARLINK-33968          
1 63883U 25094V   26195.63248971  .00001668  00000+0  14754-3 0  9995
2 63883  70.0020 274.5618 0003480 270.2045  89.8715 14.98332188 66217
STARLINK-33943          
1 63884U 25094W   26195.64064477  .00001106  00000+0  10046-3 0  9991
2 63884  70.0010 274.1927 0003765 267.0774  92.9954 14.98332952 66225
STARLINK-33858          
1 63885U 25094X   26195.59892977  .00000775  00000+0  72704-4 0  9991
2 63885  70.0009 274.4455 0003667 268.3887  91.6852 14.98330615 66219
STARLINK-33885          
1 63886U 25094Y   26195.64899060  .00001057  00000+0  96329-4 0  9991
2 63886  70.0010 274.2174 0003794 265.4459  94.6266 14.98332894 66226
STARLINK-33904          
1 63887U 25094Z   26195.64498431  .00001172  00000+0  10599-3 0  9991
2 63887  70.0009 274.2032 0003148 267.3371  92.7428 14.98333505 66224
STARLINK-33981          
1 63888U 25094AA  26195.61578049 -.00002095  00000+0 -16783-3 0  9991
2 63888  70.0009 274.5025 0003436 268.0218  92.0548 14.98327214 66213
STARLINK-33738          
1 63889U 25094AB  26195.60326610  .00000977  00000+0  89645-4 0  9999
2 63889  70.0009 274.4350 0003681 267.6661  92.4077 14.98331975 66437
STARLINK-34116          
1 63890U 25095A   26195.32841328  .00019697  00000+0  72351-3 0  9993
2 63890  42.9955 181.1954 0000629 277.5173  82.5607 15.27572992 67156
STARLINK-34123          
1 63891U 25095B   26195.01560060  .00010045  00000+0  37400-3 0  9995
2 63891  43.0019 183.1546 0002354 292.3163  67.7439 15.27584624 67108
STARLINK-33972          
1 63893U 25095D   26195.38606051  .00013716  00000+0  50688-3 0  9999
2 63893  43.0013 180.7659 0001741 269.6053  90.4599 15.27590111 67160
STARLINK-33973          
1 63894U 25095E   26195.93856161  .00008943  00000+0  33402-3 0  9991
2 63894  43.0032 177.1744 0002766 286.9967  73.0581 15.27589823 67257
STARLINK-34119          
1 63895U 25095F   26195.00786133  .00006802  00000+0  25641-3 0  9999
2 63895  42.9923 183.0823 0001460 159.4079 200.6832 15.27589607 67108
STARLINK-34143          
1 63896U 25095G   26195.37450066  .00008942  00000+0  33403-3 0  9995
2 63896  42.9985 180.6759 0001022 258.3830 101.6907 15.27585574 67164
STARLINK-33957          
1 63897U 25095H   26195.01175225  .00009731  00000+0  36286-3 0  9997
2 63897  43.0056 183.1265 0001568 285.1460  74.9218 15.27562242 67094
STARLINK-34120          
1 63898U 25095J   26195.93470611  .00006426  00000+0  24278-3 0  9992
2 63898  43.0013 177.1426 0001485 262.4576  97.6107 15.27585817 67254
STARLINK-34134          
1 63899U 25095K   26195.32452904  .00006638  00000+0  25052-3 0  9997
2 63899  42.9990 181.1634 0001370 277.2767  82.7929 15.27582036 67158
STARLINK-34118          
1 63900U 25095L   26195.00401454  .00015687  00000+0  57808-3 0  9997
2 63900  42.9796 183.0380 0004191 139.9677 220.1484 15.27590765 67109
STARLINK-34125          
1 63901U 25095M   26195.31682132  .00006596  00000+0  24903-3 0  9995
2 63901  42.9973 181.1044 0001514 263.1841  96.8838 15.27575977 67145
STARLINK-33955          
1 63902U 25095N   26195.94112986  .00012303  00000+0  45608-3 0  9998
2 63902  42.9998 177.1896 0000587 274.1355  85.9430 15.27564238 67240
STARLINK-34097          
1 63903U 25095P   26195.96040554  .00006649  00000+0  25086-3 0  9996
2 63903  42.9996 177.3312 0001496 253.0179 107.0509 15.27590126 67242
STARLINK-34092          
1 63904U 25095Q   26195.98996287  .00013479  00000+0  49864-3 0  9991
2 63904  42.9988 177.5572 0000936 289.6477  70.4273 15.27566444 67245
STARLINK-34114          
1 63905U 25095R   26195.01687636  .00011346  00000+0  42104-3 0  9992
2 63905  43.0005 183.1599 0003029 302.2205  57.8353 15.27589977 67094
STARLINK-33770          
1 63906U 25095S   26195.03471379  .00010897  00000+0  40478-3 0  9992
2 63906  43.0010 182.4258 0001281 261.8063  98.2643 15.27592276 67104
STARLINK-34106          
1 63907U 25095T   26195.03085840  .00010291  00000+0  38278-3 0  9990
2 63907  42.9969 182.3885 0001100 236.5988 123.4759 15.27594693 67100
STARLINK-34083          
1 63908U 25095U   26195.01301879  .00007100  00000+0  26724-3 0  9990
2 63908  42.9987 183.1273 0000950 249.8327 110.2423 15.27583487 67096
STARLINK-34066          
1 63909U 25095V   26195.45658828  .00006092  00000+0  23076-3 0  9994
2 63909  42.9986 180.4328 0001651 274.4476  85.6187 15.27572473 67168
STARLINK-34071          
1 63910U 25095W   26195.39762884  .00007165  00000+0  26968-3 0  9992
2 63910  42.9996 180.8524 0001246 271.7494  88.3215 15.27575483 67158
STARLINK-34038          
1 63911U 25095X   26195.44887681  .00013454  00000+0  49722-3 0  9993
2 63911  43.0036 180.3778 0003808 303.2642  56.7845 15.27597852 67167
STARLINK-34031          
1 63912U 25095Y   26195.32196262  .00008849  00000+0  33069-3 0  9998
2 63912  43.0003 181.1439 0001456 287.0071  73.0620 15.27579897 67147
STARLINK-34070          
1 63913U 25095Z   26195.96813836  .00009941  00000+0  37025-3 0  9992
2 63913  42.9988 177.3908 0000979 309.1938  50.8827 15.27582182 67247
STARLINK-34068          
1 63914U 25095AA  26195.95783873  .00013629  00000+0  50362-3 0  9996
2 63914  42.9937 177.3073 0000573 143.3452 216.7439 15.27596359 67247
STARLINK-34076          
1 63915U 25095AB  26195.96426223  .00008580  00000+0  32082-3 0  9990
2 63915  42.9960 177.3626 0000973 353.3953   6.6885 15.27591553 67243
STARLINK-33910          
1 63916U 25095AC  26195.41932101  .00011658  00000+0  43240-3 0  9996
2 63916  43.0009 180.1486 0001831 258.2563 101.8083 15.27585902 67160
STARLINK-34075          
1 63917U 25095AD  26195.95398194  .00009551  00000+0  35607-3 0  9991
2 63917  43.0023 177.2862 0002869 297.1335  62.9224 15.27585598 67247
YAOGAN-40 02A           
1 63918U 25096A   26195.98046477  .00000058  00000+0  21234-4 0  9995
2 63918  85.9964 175.5191 0002307  76.2566 283.8874 14.12453352 60492
YAOGAN-40 02B           
1 63919U 25096B   26195.98061918  .00000074  00000+0  29773-4 0  9997
2 63919  85.9960 175.4869 0002601  87.0349 273.1132 14.12452856 60493
YAOGAN-40 02C           
1 63920U 25096C   26195.98053765  .00000081  00000+0  33736-4 0  9992
2 63920  85.9966 174.7664 0002260  80.7758 279.3681 14.12452478 79331
TJS-19                  
1 63924U 25097A   26194.73157992 -.00000278  00000+0  00000+0 0  9998
2 63924   3.2430 317.8726 0003966 245.4291 132.8569  1.00266719  4418
STARLINK-34012          
1 63926U 25098A   26195.76213764  .00003203  00000+0  27610-3 0  9995
2 63926  70.0023 314.1876 0003305 270.5011  89.5770 14.98326527 65629
STARLINK-33956          
1 63927U 25098B   26195.71621520  .00000871  00000+0  80738-4 0  9993
2 63927  70.0027 314.0222 0003117 264.1159  95.9645 14.98331289 65590
STARLINK-33997          
1 63928U 25098C   26195.70789137  .00001563  00000+0  13872-3 0  9995
2 63928  70.0028 314.3922 0003475 264.6259  95.4504 14.98333592 65593
STARLINK-33989          
1 63929U 25098D   26195.91670139 -.00039768  00000+0 -33404-2 0  9992
2 63929  70.0027 313.7206 0003663 266.1911 274.0591 14.98370366  5654
STARLINK-33980          
1 63930U 25098E   26195.77047714  .00001690  00000+0  14934-3 0  9994
2 63930  70.0027 314.2169 0003405 266.9537  93.1232 14.98335343 65605
STARLINK-33994          
1 63931U 25098F   26195.74561302  .00001355  00000+0  12134-3 0  9994
2 63931  70.0022 314.1273 0002560 250.4648 109.6235 14.98337767 65606
STARLINK-33971          
1 63932U 25098G   26195.76646916  .00001611  00000+0  14276-3 0  9996
2 63932  70.0025 314.2028 0003353 269.3322  90.7453 14.98335350 65606
STARLINK-33877          
1 63933U 25098H   26195.72055531  .00000777  00000+0  72870-4 0  9997
2 63933  70.0023 314.0301 0003043 268.5895  91.4915 14.98331527 65602
